ALOS-2                  
1 39766U 14029A   26184.77685350  .00001480  00000+0  20504-3 0  9995
2 39766  97.9231 281.7034 0001643  89.0013 271.1387 14.79475407654039
KAZEOSAT 2              
1 40010U 14033A   26185.27209410  .00000095  00000+0  16774-4 0  9995
2 40010  97.5395  23.9803 0006968 263.5753  96.4670 14.85488720651494
HODOYOSHI-4             
1 40011U 14033B   26185.31457385  .00000804  00000+0  92594-4 0  9999
2 40011  97.5450   9.3098 0022170 247.8444 112.0420 14.88164669651355
DEIMOS-2                
1 40013U 14033D   26185.26492918  .00001733  00000+0  16862-3 0  9991
2 40013  97.5800  59.1517 0000951  78.4158 281.7169 14.93771222640276
HODOYOSHI-3             
1 40015U 14033F   26185.16049679  .00001136  00000+0  13686-3 0  9992
2 40015  97.6435 347.5195 0031488 299.9896  59.8195 14.85421912650146
SPOT 7                  
1 40053U 14034A   26185.30375340  .00000474  00000+0  10587-3 0  9999
2 40053  98.0619 247.3542 0001444  97.0366 263.0999 14.60973495639631
SKYSAT-B                
1 40072U 14037D   26184.86861272  .00001509  00000+0  17083-3 0  9995
2 40072  98.3847 144.7855 0004668 212.2976 147.7954 14.88070794648442
WORLDVIEW-3 (WV-3)      
1 40115U 14048A   26185.14705961  .00001001  00000+0  12345-3 0  9992
2 40115  97.8561 259.7456 0000407 170.0927 190.0296 14.85050796644426
GAOFEN-2                
1 40118U 14049A   26185.33844080  .00000772  00000+0  10677-3 0  9993
2 40118  98.0099 249.5289 0007406 166.9527 193.1878 14.80917501641771
YAOGAN-21               
1 40143U 14053A   26185.27166142  .00008196  00000+0  31499-3 0  9998
2 40143  97.1458 224.7759 0009053  43.8656 316.3301 15.26630130657566
YAOGAN-22               
1 40275U 14063A   26185.14507247 -.00000023  00000+0  63910-4 0  9992
2 40275 100.7748 336.7014 0006694 148.4728 211.6785 13.15531253562046
ASNARO                  
1 40298U 14070A   26185.28052601  .00008658  00000+0  40831-3 0  9996
2 40298  97.3446 260.9344 0006648 117.4549 242.7363 15.19693567646602
YAOGAN-24               
1 40310U 14072A   26185.29929537  .00000715  00000+0  11115-3 0  9994
2 40310  98.1517 322.7820 0013769 205.0871 154.9670 14.76107364626245
CBERS 4                 
1 40336U 14079A   26185.32326713  .00000236  00000+0  96608-4 0  9999
2 40336  98.3520 241.6170 0001263  52.1643 307.9657 14.35514303606412
YAOGAN-26               
1 40362U 14088A   26185.26723490  .00029510  00000+0  56371-3 0  9992
2 40362  97.0645 185.0832 0003559  25.5300 334.6126 15.48063828640349
SMAP                    
1 40376U 15003A   26185.17389792  .00000515  00000+0  10866-3 0  9991
2 40376  98.1278 192.0278 0001498  98.0489 262.0883 14.63382036610109
KOMPSAT-3A              
1 40536U 15014A   26185.23709546  .00037907  00000+0  52806-3 0  9996
2 40536  97.6891 177.8558 0057108 114.1070 246.6171 15.54881017624465
SENTINEL-2A             
1 40697U 15028A   26185.27762785 -.00000101  00000+0 -22011-4 0  9991
2 40697  98.5681 259.8867 0001208  96.3482 263.7838 14.30819553576175
GAOFEN-8                
1 40701U 15030A   26185.30185479  .00018369  00000+0  37002-3 0  9991
2 40701  97.6896  19.7056 0009736 128.7858 231.4262 15.46585623614096
CARBONITE 1 (CBNT-1)    
1 40718U 15032D   26185.31343097  .00001609  00000+0  20091-3 0  9993
2 40718  97.6512   2.6626 0013133 235.4088 124.5888 14.83639042591882
YAOGAN-27               
1 40878U 15040A   26185.28528309 -.00000182  00000+0 -36892-3 0  9999
2 40878 100.1161 170.9266 0008181 169.6470 190.4814 13.16070942519916
GAOFEN-9 01             
1 40894U 15047A   26185.33669748  .00001225  00000+0  15627-3 0  9993
2 40894  97.6267 220.2517 0028867  84.3277 276.1228 14.82918916582737
YAOGAN-28               
1 41026U 15064A   26185.28924512  .00009135  00000+0  33996-3 0  9994
2 41026  97.3100 323.2063 0011844 126.6894 233.5435 15.27647000593293
YAOGAN-29               
1 41038U 15069A   26185.31462711  .00001036  00000+0  13378-3 0  9998
2 41038  98.0016 213.9743 0001601  30.2009 329.9296 14.83101605573164
KENT RIDGE 1            
1 41167U 15077B   26185.18921416  .00004653  00000+0  15918-3 0  9997
2 41167  14.9786 139.5302 0008156 119.4661 240.6475 15.23233724583698
GAOFEN-4                
1 41194U 15083A   26185.12266756 -.00000323  00000+0  00000+0 0  9990
2 41194   0.3991  83.8393 0004026 115.9310 232.2313  1.00273470 38695
JASON-3                 
1 41240U 16002A   26185.16781289 -.00000022  00000+0  15986-3 0  9990
2 41240  66.0418  90.1367 0008289 271.8062  88.2008 12.87623395489437
SENTINEL-3A             
1 41335U 16011A   26185.25813103  .00000126  00000+0  70194-4 0  9993
2 41335  98.6242 252.3961 0001421  93.9550 266.1793 14.26737477540490
ZIYUAN 3-02 (ZY 3-02)   
1 41556U 16033A   26185.29159697  .00007673  00000+0  34475-3 0  9992
2 41556  97.3827 260.7371 0012992 224.5483 135.4709 15.21348720560582
CARTOSAT-2C             
1 41599U 16040A   26185.11939613  .00005560  00000+0  26711-3 0  9999
2 41599  97.4470 244.8641 0010124  78.4182 281.8189 15.19193846556288
