OBJECT_NAME,OBJECT_ID,EPOCH,MEAN_MOTION,ECCENTRICITY,INCLINATION,RA_OF_ASC_NODE,ARG_OF_PERICENTER,MEAN_ANOMALY,EPHEMERIS_TYPE,CLASSIFICATION_TYPE,NORAD_CAT_ID,ELEMENT_SET_NO,REV_AT_EPOCH,BSTAR,MEAN_MOTION_DOT,MEAN_MOTION_DDOT
ALOS-2,2014-029A,2026-07-03T18:38:40.142400,14.79475407,.00016432,97.9231,281.7034,89.0013,271.1387,0,U,39766,999,65403,.20504017E-3,.148E-4,0
KAZEOSAT 2,2014-033A,2026-07-04T06:31:48.930240,14.85488720,.00069689,97.5395,23.9803,263.5753,96.4670,0,U,40010,999,65149,.16773552E-4,.95E-6,0
HODOYOSHI-4,2014-033B,2026-07-04T07:32:59.180640,14.88164669,.00221706,97.5450,9.3098,247.8444,112.0420,0,U,40011,999,65135,.9259379E-4,.804E-5,0
DEIMOS-2,2014-033D,2026-07-04T06:21:29.881152,14.93771222,.00009516,97.5800,59.1517,78.4158,281.7169,0,U,40013,999,64027,.16861625E-3,.1733E-4,0
HODOYOSHI-3,2014-033F,2026-07-04T03:51:06.922656,14.85421912,.00314884,97.6435,347.5195,299.9896,59.8195,0,U,40015,999,65014,.13686394E-3,.1136E-4,0
SPOT 7,2014-034A,2026-07-04T07:17:24.293760,14.60973495,.00014445,98.0619,247.3542,97.0366,263.0999,0,U,40053,999,63963,.10586612E-3,.474E-5,0
SKYSAT-B,2014-037D,2026-07-03T20:50:48.139008,14.88070794,.00046684,98.3847,144.7855,212.2976,147.7954,0,U,40072,999,64844,.17083401E-3,.1509E-4,0
WORLDVIEW-3 (WV-3),2014-048A,2026-07-04T03:31:45.950304,14.85050796,.00004074,97.8561,259.7456,170.0927,190.0296,0,U,40115,999,64442,.12345073E-3,.1001E-4,0
GAOFEN-2,2014-049A,2026-07-04T08:07:21.285120,14.80917501,.00074068,98.0099,249.5289,166.9527,193.1878,0,U,40118,999,64177,.10677473E-3,.772E-5,0
YAOGAN-21,2014-053A,2026-07-04T06:31:11.546688,15.26630130,.00090533,97.1458,224.7759,43.8656,316.3301,0,U,40143,999,65756,.31499169E-3,.8196E-4,0
YAOGAN-22,2014-063A,2026-07-04T03:28:54.261408,13.15531253,.00066946,100.7748,336.7014,148.4728,211.6785,0,U,40275,999,56204,.63910404E-4,-.23E-6,0
ASNARO,2014-070A,2026-07-04T06:43:57.447264,15.19693567,.00066488,97.3446,260.9344,117.4549,242.7363,0,U,40298,999,64660,.40830903E-3,.8658E-4,0
YAOGAN-24,2014-072A,2026-07-04T07:10:59.119968,14.76107364,.00137692,98.1517,322.7820,205.0871,154.9670,0,U,40310,999,62624,.11115196E-3,.715E-5,0
CBERS 4,2014-079A,2026-07-04T07:45:30.280032,14.35514303,.00012631,98.3520,241.6170,52.1643,307.9657,0,U,40336,999,60641,.96608056E-4,.236E-5,0
YAOGAN-26,2014-088A,2026-07-04T06:24:49.095360,15.48063828,.00035597,97.0645,185.0832,25.5300,334.6126,0,U,40362,999,64034,.56370708E-3,.2951E-3,0
SMAP,2015-003A,2026-07-04T04:10:24.780288,14.63382036,.00014987,98.1278,192.0278,98.0489,262.0883,0,U,40376,999,61010,.10865763E-3,.515E-5,0
KOMPSAT-3A,2015-014A,2026-07-04T05:41:25.047744,15.54881017,.00571081,97.6891,177.8558,114.1070,246.6171,0,U,40536,999,62446,.52805519E-3,.37907E-3,0
SENTINEL-2A,2015-028A,2026-07-04T06:39:47.046240,14.30819553,.00012085,98.5681,259.8867,96.3482,263.7838,0,U,40697,999,57617,-.22010946E-4,-.101E-5,0
GAOFEN-8,2015-030A,2026-07-04T07:14:40.253856,15.46585623,.00097362,97.6896,19.7056,128.7858,231.4262,0,U,40701,999,61409,.37002092E-3,.18369E-3,0
CARBONITE 1 (CBNT-1),2015-032D,2026-07-04T07:31:20.435808,14.83639042,.00131338,97.6512,2.6626,235.4088,124.5888,0,U,40718,999,59188,.20091206E-3,.1609E-4,0
YAOGAN-27,2015-040A,2026-07-04T06:50:48.458976,13.16070942,.00081811,100.1161,170.9266,169.6470,190.4814,0,U,40878,999,51991,-.36892258E-3,-.182E-5,0
GAOFEN-9 01,2015-047A,2026-07-04T08:04:50.662272,14.82918916,.0028867,97.6267,220.2517,84.3277,276.1228,0,U,40894,999,58273,.1562731E-3,.1225E-4,0
YAOGAN-28,2015-064A,2026-07-04T06:56:30.778368,15.27647000,.00118446,97.3100,323.2063,126.6894,233.5435,0,U,41026,999,59329,.33995785E-3,.9135E-4,0
YAOGAN-29,2015-069A,2026-07-04T07:33:03.782304,14.83101605,.00016011,98.0016,213.9743,30.2009,329.9296,0,U,41038,999,57316,.13377845E-3,.1036E-4,0
KENT RIDGE 1,2015-077B,2026-07-04T04:32:28.103424,15.23233724,.00081566,14.9786,139.5302,119.4661,240.6475,0,U,41167,999,58369,.15917865E-3,.4653E-4,0
GAOFEN-4,2015-083A,2026-07-04T02:56:38.477184,1.00273470,.00040268,0.3991,83.8393,115.9310,232.2313,0,U,41194,999,3869,0,-.323E-5,0
JASON-3,2016-002A,2026-07-04T04:01:39.033696,12.87623395,.0008289,66.0418,90.1367,271.8062,88.2008,0,U,41240,999,48943,.1598614E-3,-.22E-6,0
SENTINEL-3A,2016-011A,2026-07-04T06:11:42.520992,14.26737477,.00014213,98.6242,252.3961,93.9550,266.1793,0,U,41335,999,54049,.70193557E-4,.126E-5,0
ZIYUAN 3-02 (ZY 3-02),2016-033A,2026-07-04T06:59:53.978208,15.21348720,.00129921,97.3827,260.7371,224.5483,135.4709,0,U,41556,999,56058,.34475298E-3,.7673E-4,0
CARTOSAT-2C,2016-040A,2026-07-04T02:51:55.825632,15.19193846,.00101241,97.4470,244.8641,78.4182,281.8189,0,U,41599,999,55628,.26710632E-3,.556E-4,0
